{
  "norad_id": 66820,
  "name": "KOMPSAT-7",
  "history": [
    {
      "epoch": "2026-03-24T03:10:58.823328Z",
      "apogee_km": 567.9992945637377,
      "perigee_km": 556.4558026319273,
      "latitude_deg": -1.2705869873977326e-05,
      "longitude_deg": 163.19563520359844,
      "height_km": 562.8528429819314,
      "semi_major_axis_km": 6940.364548597832,
      "eccentricity": 0.00083162,
      "inclination_deg": 97.6797,
      "raan_deg": 32.5556,
      "arg_perigee_deg": 294.9939,
      "mean_anomaly_deg": 65.0421,
      "mean_motion_rev_day": 15.01513834
    }
  ]
}